STARLINK-5160           
1 54080U 22136AF  25242.93041737  .00000579  00000+0  54476-4 0  9990
2 54080  53.2174 115.6382 0001397  91.9813 268.1339 15.08841131158118
STARLINK-5165           
1 54081U 22136AG  25242.91668981  .01884480  00000+0  62133-1 0  9993
2 54081  53.2112 109.3237 0001533  66.7935 209.1515 15.27830794  5506
STARLINK-5210           
1 54082U 22136AH  25242.93272361 -.00001654  00000+0 -85888-4 0  9999
2 54082  53.2165 110.6453 0001378  92.9088 267.2062 15.08836857158187
STARLINK-5178           
1 54083U 22136AJ  25242.92167386 -.00001030  00000+0 -46633-4 0  9992
2 54083  53.2175 110.5782 0001404  95.6225 264.4928 15.08836396158184
STARLINK-5183           
1 54084U 22136AK  25242.86280088 -.00000201  00000+0  54546-5 0  9992
2 54084  53.2177 110.9203 0001308  93.7555 266.3587 15.08836138158172
STARLINK-5166           
1 54085U 22136AL  25242.91894134  .00000252  00000+0  33931-4 0  9991
2 54085  53.2179 110.5613 0001394  92.5007 267.6145 15.08839636158181
STARLINK-5211           
1 54086U 22136AM  25242.85497782  .00000180  00000+0  29386-4 0  9992
2 54086  53.2171  95.9156 0001352  81.5045 278.6101 15.08839321158383
STARLINK-5184           
1 54087U 22136AN  25242.88114251 -.00000326  00000+0 -24235-5 0  9996
2 54087  53.2177 110.3374 0001274  91.7686 268.3452 15.08837359158183
STARLINK-5153           
1 54088U 22136AP  25242.92535173  .00000659  00000+0  59483-4 0  9991
2 54088  53.2168 110.6003 0001278  86.8840 273.2299 15.08841717158184
STARLINK-5143           
1 54089U 22136AQ  25242.90324685 -.00000965  00000+0 -42581-4 0  9997
2 54089  53.2165 110.4642 0001237  94.6926 265.4208 15.08836893158188
STARLINK-5177           
1 54090U 22136AR  25242.90693167 -.00000432  00000+0 -90639-5 0  9990
2 54090  53.2175 110.4861 0001326  94.1484 265.9660 15.08839273158189
STARLINK-5221           
1 54091U 22136AS  25242.87745454 -.00002126  00000+0 -11555-3 0  9994
2 54091  53.2168 110.3082 0001362  87.4597 272.6551 15.08829676158186
STARLINK-5190           
1 54092U 22136AT  25242.61446738  .00031294  00000+0  60895-3 0  9997
2 54092  53.1882  16.3588 0004018  84.4463 275.7004 15.47325340159488
STARLINK-5213           
1 54093U 22136AU  25242.89220129 -.00000235  00000+0  33181-5 0  9994
2 54093  53.2170 110.3963 0001210  90.8470 269.2661 15.08834060158186
STARLINK-5219           
1 54094U 22136AV  25242.89955599 -.00000473  00000+0 -11658-4 0  9990
2 54094  53.2177 110.4411 0001272  94.9069 265.2069 15.08846603158184
STARLINK-5193           
1 54095U 22136AW  25242.88482057  .00000885  00000+0  73699-4 0  9992
2 54095  53.2180 110.3504 0001295  90.4121 269.7020 15.08840802158187
STARLINK-5188           
1 54096U 22136AX  25242.89587945  .00000451  00000+0  46453-4 0  9993
2 54096  53.2169 110.4191 0001285  89.5997 270.5142 15.08839830158181
STARLINK-5197           
1 54097U 22136AY  25242.83747902  .00000413  00000+0  44056-4 0  9994
2 54097  53.2171  85.8192 0001311  94.0596 266.0546 15.08838453158523
STARLINK-5217           
1 54098U 22136AZ  25242.88218484  .00001437  00000+0  10834-3 0  9991
2 54098  53.2174 111.0260 0001233  75.9191 284.1938 15.08847324158171
STARLINK-5198           
1 54099U 22136BA  25242.87377314  .00000198  00000+0  30523-4 0  9990
2 54099  53.2176 110.2828 0001330  94.8070 265.3074 15.08834842158183
STARLINK-5185           
1 54100U 22136BB  25242.88851471  .00001073  00000+0  85495-4 0  9996
2 54100  53.2180 110.3714 0001435  86.7327 273.3829 15.08847248158188
STARLINK-5204           
1 54101U 22136BC  25242.88902469 -.00000328  00000+0 -25449-5 0  9999
2 54101  53.2177  95.4204 0001364  91.3477 268.7671 15.08827631158391
STARLINK-5179           
1 54102U 22136BD  25242.91797825 -.00000055  00000+0  14627-4 0  9993
2 54102  53.2173 110.5468 0001449  94.4999 265.6158 15.08843521158185
STARLINK-5200           
1 54103U 22136BE  25242.89036177  .00000193  00000+0  30235-4 0  9992
2 54103  53.2175  90.4383 0001307  87.2550 272.8591 15.08836431158460
STARLINK-5203           
1 54104U 22136BF  25242.93402757  .00000259  00000+0  34349-4 0  9992
2 54104  53.2172  75.0100 0001287  88.2126 271.9014 15.08839863158687
COSMOS 2561             
1 54109U 22137A   25242.69541588  .00014279  00000+0  32565-3 0  9991
2 54109  96.9645 308.4503 0011647  22.7094 337.4668 15.42928633161420
ONEWEB-0490             
1 54113U 22138A   25242.83208110 -.00000016  00000+0 -71059-4 0  9992
2 54113  87.9278   2.6772 0001656  94.2969 265.8353 13.19725878138531
ONEWEB-0492             
1 54114U 22138B   25242.85734241  .00000051  00000+0  94333-4 0  9991
2 54114  87.9273   2.6948 0001560  99.8781 260.2528 13.19724079138545
ONEWEB-0495             
1 54115U 22138C   25242.83524401  .00000035  00000+0  54555-4 0  9999
2 54115  87.9265   2.7091 0001432  75.8993 284.2299 13.19725567138526
ONEWEB-0497             
1 54116U 22138D   25242.84788334  .00000056  00000+0  10728-3 0  9994
2 54116  87.9278   2.6811 0001720  96.6413 263.4916 13.19725873138512
ONEWEB-0499             
1 54117U 22138E   25242.83048791  .00000024  00000+0  28624-4 0  9990
2 54117  87.9276   2.7027 0001991  89.5102 270.6259 13.19727777138523
ONEWEB-0500             
1 54118U 22138F   25242.83367325  .00000095  00000+0  20423-3 0  9994
2 54118  87.9280   2.6875 0001767 100.6042 259.5290 13.19725095138531
ONEWEB-0501             
1 54119U 22138G   25242.86367043  .00000016  00000+0  70522-5 0  9995
2 54119  87.9279   2.6739 0001616  85.3529 274.7788 13.19726888138511
ONEWEB-0502             
1 54120U 22138H   25242.84944420  .00000005  00000+0 -20264-4 0  9991
2 54120  87.9277   2.6601 0001777  88.6317 271.5020 13.19727468138539
ONEWEB-0503             
1 54121U 22138J   25242.83840392  .00000086  00000+0  18215-3 0  9994
2 54121  87.9278   2.6668 0002087  95.9818 264.1553 13.19725027138523
ONEWEB-0504             
1 54122U 22138K   25242.90156702 -.00000188  00000+0 -50097-3 0  9997
2 54122  87.9280   2.6705 0001859  88.8380 271.2966 13.19725017138548
ONEWEB-0505             
1 54123U 22138L   25242.89842974  .00000070  00000+0  14137-3 0  9992
2 54123  87.9277   2.6598 0001691  79.6367 280.4956 13.19725343138523
ONEWEB-0506             
1 54124U 22138M   25242.87313629  .00000091  00000+0  19391-3 0  9991
2 54124  87.9277   2.6620 0001725  91.3963 268.7368 13.19723921138516
ONEWEB-0507             
1 54125U 22138N   25242.89367033  .00000054  00000+0  10235-3 0  9999
2 54125  87.9268   2.7092 0001633  92.2392 267.8928 13.19726498138564
ONEWEB-0508             
1 54126U 22138P   25242.89050867 -.00000117  00000+0 -32404-3 0  9998
2 54126  87.9274   2.6941 0001505  88.0809 272.0496 13.19725615138544
ONEWEB-0509             
1 54127U 22138Q   25242.86526109  .00000055  00000+0  10582-3 0  9995
2 54127  87.9279   2.6615 0001712  94.1095 266.0234 13.19725729138519
ONEWEB-0510             
1 54128U 22138R   25242.75572062  .00000046  00000+0  80096-4 0  9991
2 54128  87.9293 332.3285 0002265 111.5870 248.5505 13.20769300140942
ONEWEB-0511             
1 54129U 22138S   25242.86209216  .00000056  00000+0  10876-3 0  9991
2 54129  87.9277   2.6671 0002034  93.7107 266.4258 13.19724572138546
ONEWEB-0512             
1 54130U 22138T   25242.85420009 -.00000040  00000+0 -13283-3 0  9997
2 54130  87.9263   2.7099 0001758  84.2574 275.8759 13.19724485138513
ONEWEB-0513             
1 54131U 22138U   25242.83040522  .00000098  00000+0  21142-3 0  9998
2 54131  87.9283   2.6750 0002091  80.9461 279.1908 13.20313237138400
ONEWEB-0514             
1 54132U 22138V   25242.86999404  .00000060  00000+0  11752-3 0  9999
2 54132  87.9279   2.6783 0001853  99.3569 260.7773 13.19726176138538
ONEWEB-0515             
1 54133U 22138W   25242.74307387  .00000153  00000+0  34335-3 0  9995
2 54133  87.9300 332.3087 0001853 127.9189 232.2112 13.20770164140969
ONEWEB-0516             
1 54134U 22138X   25242.84472884  .00000210  00000+0  49343-3 0  9991
2 54134  87.9265   2.7166 0001646  96.5874 263.5446 13.19724556138537
ONEWEB-0517             
1 54135U 22138Y   25242.90000636  .00000052  00000+0  98470-4 0  9991
2 54135  87.9279   2.6676 0002116  95.8039 264.3335 13.19724915138542
ONEWEB-0518             
1 54136U 22138Z   25242.84312724  .00000035  00000+0  55988-4 0  9997
2 54136  87.9276   2.7153 0001701  92.9113 267.2214 13.19727146138537
ONEWEB-0519             
1 54137U 22138AA  25242.86841740  .00000036  00000+0  58768-4 0  9995
2 54137  87.9277   2.6659 0002004  94.4555 265.6806 13.19725426138542
ONEWEB-0520             
1 54138U 22138AB  25242.82732791 -.00000169  00000+0 -45344-3 0  9991
2 54138  87.9280   2.6781 0001630  89.0204 271.1116 13.19724526138522
ONEWEB-0521             
1 54139U 22138AC  25242.86051957 -.00000003  00000+0 -39624-4 0  9996
2 54139  87.9276   2.6577 0002055  99.3238 260.8127 13.19725473138477
ONEWEB-0522             
1 54140U 22138AD  25242.83998279 -.00000069  00000+0 -20380-3 0  9992
2 54140  87.9276   2.6628 0001717  97.1572 262.9756 13.19725000138519
ONEWEB-0523             
1 54141U 22138AE  25242.80622330 -.00000044  00000+0 -14016-3 0  9994
2 54141  87.9293 332.3232 0002428 117.8956 242.2423 13.20770017140974
ONEWEB-0524             
1 54142U 22138AF  25242.79517010  .00000091  00000+0  19098-3 0  9996
2 54142  87.9291 332.3261 0001519 129.0817 231.0452 13.20772794140978
ONEWEB-0525             
1 54143U 22138AG  25242.85893372  .00000036  00000+0  57408-4 0  9999
2 54143  87.9279   2.6801 0001596  89.5712 270.5604 13.19726013138538
ONEWEB-0526             
1 54144U 22138AH  25242.89208995 -.00000009  00000+0 -55648-4 0  9991
2 54144  87.9278   2.6606 0001724  97.4311 262.7018 13.19727246138516
ONEWEB-0529             
1 54145U 22138AJ  25242.89526376  .00000081  00000+0  16929-3 0  9994
2 54145  87.9268   2.7004 0001611  92.1301 268.0016 13.19727123138538
